HULIANWANG DIGUI-136    
1 67244U 25311J   26019.52180883  .00000012  00000+0  13236-3 0  9998
2 67244  50.0106 298.0118 0000453 348.0623  12.0264 13.87669700  3425
CZ-8A R/B               
1 67245U 25311K   26020.98448282 -.00000135  00000+0  10140-4 0  9990
2 67245  50.0047 288.3824 0089025 171.6385 188.6030 14.12606801  3684
FENGYUN 4C              
1 67246U 25312A   26020.96244573 -.00000309  00000+0  00000+0 0  9999
2 67246   0.0616 239.2520 0002186  53.7481 306.7596  1.00268351   303
CZ-3B R/B               
1 67247U 25312B   26021.04132153  .00296461  13773-5  68892-3 0  9999
2 67247  28.3931 324.1620 7187250 195.5092 118.1369  2.46672932   610
2025-313A               
1 67248U 25313A   26021.48461012  .00003525  00000+0  35369-3 0  9991
2 67248  97.5617  97.1714 0280563  88.0456 275.2852 14.66824371  3510
2025-313B               
1 67249U 25313B   26021.45014502  .00006690  00000+0  50997-3 0  9997
2 67249  97.5306  97.2619 0297666  92.1274 271.4047 14.73262618  3520
2025-313C               
1 67250U 25313C   26021.47090747  .00019518  00000+0  18081-2 0  9996
2 67250  97.6344  98.0005 0162184 101.7867 260.1592 14.84983007  3551
2025-313D               
1 67251U 25313D   26021.47037490  .00005801  00000+0  50364-3 0  9994
2 67251  97.5859  97.9873 0152342  94.3659 267.4981 14.88799253  3569
ZORKIY-2M-VPE           
1 67252U 25313E   26021.48374155  .00012092  00000+0  53443-3 0  9999
2 67252  97.4099  98.5844 0011534 136.0433 224.1722 15.21799027  3640
AIST-2T 1               
1 67253U 25313F   26021.46863643  .00068034  00000+0  66188-3 0  9990
2 67253  97.1015  98.8529 0010582 152.3927 207.7898 15.66001431  3724
AIST-2T 2               
1 67254U 25313G   26021.21565962  .00040798  00000+0  41367-3 0  9996
2 67254  97.1015  98.5908 0009400 163.2757 196.8815 15.65084093  3677
2025-313H               
1 67255U 25313H   26021.45758445  .00004768  00000+0  33453-3 0  9997
2 67255  97.3077  97.5720 0091579 114.4187 246.6628 15.02216268  3591
