CCSDS_OMM_VERS = 2.0
CREATION_DATE  = 
ORIGINATOR     = 

OBJECT_NAME    = HULIANWANG DIGUI-136
OBJECT_ID      = 2025-311J
CENTER_NAME    = EARTH
REF_FRAME      = TEME
TIME_SYSTEM    = UTC
MEAN_ELEMENT_THEORY = SGP/SGP4

EPOCH          = 2026-01-19T12:31:24.282912
MEAN_MOTION    = 13.87669700
ECCENTRICITY   = .00004531
INCLINATION    = 50.0106
RA_OF_ASC_NODE = 298.0118
ARG_OF_PERICENTER = 348.0623
MEAN_ANOMALY   = 12.0264

EPHEMERIS_TYPE = 0
CLASSIFICATION_TYPE = U
NORAD_CAT_ID   = 67244
ELEMENT_SET_NO = 999
REV_AT_EPOCH   = 342
BSTAR          = .13236406E-3
MEAN_MOTION_DOT = .12E-6
MEAN_MOTION_DDOT = 0

CCSDS_OMM_VERS = 2.0
CREATION_DATE  = 
ORIGINATOR     = 

OBJECT_NAME    = CZ-8A R/B
OBJECT_ID      = 2025-311K
CENTER_NAME    = EARTH
REF_FRAME      = TEME
TIME_SYSTEM    = UTC
MEAN_ELEMENT_THEORY = SGP/SGP4

EPOCH          = 2026-01-20T23:37:39.315648
MEAN_MOTION    = 14.12606801
ECCENTRICITY   = .00890257
INCLINATION    = 50.0047
RA_OF_ASC_NODE = 288.3824
ARG_OF_PERICENTER = 171.6385
MEAN_ANOMALY   = 188.6030

EPHEMERIS_TYPE = 0
CLASSIFICATION_TYPE = U
NORAD_CAT_ID   = 67245
ELEMENT_SET_NO = 999
REV_AT_EPOCH   = 368
BSTAR          = .10140483E-4
MEAN_MOTION_DOT = -.135E-5
MEAN_MOTION_DDOT = 0

CCSDS_OMM_VERS = 2.0
CREATION_DATE  = 
ORIGINATOR     = 

OBJECT_NAME    = FENGYUN 4C
OBJECT_ID      = 2025-312A
CENTER_NAME    = EARTH
REF_FRAME      = TEME
TIME_SYSTEM    = UTC
MEAN_ELEMENT_THEORY = SGP/SGP4

EPOCH          = 2026-01-20T23:05:55.311072
MEAN_MOTION    = 1.00268351
ECCENTRICITY   = .00021869
INCLINATION    = 0.0616
RA_OF_ASC_NODE = 239.2520
ARG_OF_PERICENTER = 53.7481
MEAN_ANOMALY   = 306.7596

EPHEMERIS_TYPE = 0
CLASSIFICATION_TYPE = U
NORAD_CAT_ID   = 67246
ELEMENT_SET_NO = 999
REV_AT_EPOCH   = 30
BSTAR          = 0
MEAN_MOTION_DOT = -.309E-5
MEAN_MOTION_DDOT = 0

CCSDS_OMM_VERS = 2.0
CREATION_DATE  = 
ORIGINATOR     = 

OBJECT_NAME    = CZ-3B R/B
OBJECT_ID      = 2025-312B
CENTER_NAME    = EARTH
REF_FRAME      = TEME
TIME_SYSTEM    = UTC
MEAN_ELEMENT_THEORY = SGP/SGP4

EPOCH          = 2026-01-21T00:59:30.180192
MEAN_MOTION    = 2.46672932
ECCENTRICITY   = .718725
INCLINATION    = 28.3931
RA_OF_ASC_NODE = 324.1620
ARG_OF_PERICENTER = 195.5092
MEAN_ANOMALY   = 118.1369

EPHEMERIS_TYPE = 0
CLASSIFICATION_TYPE = U
NORAD_CAT_ID   = 67247
ELEMENT_SET_NO = 999
REV_AT_EPOCH   = 61
BSTAR          = .68892E-3
MEAN_MOTION_DOT = .296461E-2
MEAN_MOTION_DDOT = .13773E-5

CCSDS_OMM_VERS = 2.0
CREATION_DATE  = 
ORIGINATOR     = 

OBJECT_NAME    = 2025-313A
OBJECT_ID      = 2025-313A
CENTER_NAME    = EARTH
REF_FRAME      = TEME
TIME_SYSTEM    = UTC
MEAN_ELEMENT_THEORY = SGP/SGP4

EPOCH          = 2026-01-21T11:37:50.314368
MEAN_MOTION    = 14.66824371
ECCENTRICITY   = .0280563
INCLINATION    = 97.5617
RA_OF_ASC_NODE = 97.1714
ARG_OF_PERICENTER = 88.0456
MEAN_ANOMALY   = 275.2852

EPHEMERIS_TYPE = 0
CLASSIFICATION_TYPE = U
NORAD_CAT_ID   = 67248
ELEMENT_SET_NO = 999
REV_AT_EPOCH   = 351
BSTAR          = .35369E-3
MEAN_MOTION_DOT = .3525E-4
MEAN_MOTION_DDOT = 0

CCSDS_OMM_VERS = 2.0
CREATION_DATE  = 
ORIGINATOR     = 

OBJECT_NAME    = 2025-313B
OBJECT_ID      = 2025-313B
CENTER_NAME    = EARTH
REF_FRAME      = TEME
TIME_SYSTEM    = UTC
MEAN_ELEMENT_THEORY = SGP/SGP4

EPOCH          = 2026-01-21T10:48:12.529728
MEAN_MOTION    = 14.73262618
ECCENTRICITY   = .0297666
INCLINATION    = 97.5306
RA_OF_ASC_NODE = 97.2619
ARG_OF_PERICENTER = 92.1274
MEAN_ANOMALY   = 271.4047

EPHEMERIS_TYPE = 0
CLASSIFICATION_TYPE = U
NORAD_CAT_ID   = 67249
ELEMENT_SET_NO = 999
REV_AT_EPOCH   = 352
BSTAR          = .50997E-3
MEAN_MOTION_DOT = .669E-4
MEAN_MOTION_DDOT = 0

CCSDS_OMM_VERS = 2.0
CREATION_DATE  = 
ORIGINATOR     = 

OBJECT_NAME    = 2025-313C
OBJECT_ID      = 2025-313C
CENTER_NAME    = EARTH
REF_FRAME      = TEME
TIME_SYSTEM    = UTC
MEAN_ELEMENT_THEORY = SGP/SGP4

EPOCH          = 2026-01-21T11:18:06.405408
MEAN_MOTION    = 14.84983007
ECCENTRICITY   = .0162184
INCLINATION    = 97.6344
RA_OF_ASC_NODE = 98.0005
ARG_OF_PERICENTER = 101.7867
MEAN_ANOMALY   = 260.1592

EPHEMERIS_TYPE = 0
CLASSIFICATION_TYPE = U
NORAD_CAT_ID   = 67250
ELEMENT_SET_NO = 999
REV_AT_EPOCH   = 355
BSTAR          = .18081E-2
MEAN_MOTION_DOT = .19518E-3
MEAN_MOTION_DDOT = 0

CCSDS_OMM_VERS = 2.0
CREATION_DATE  = 
ORIGINATOR     = 

OBJECT_NAME    = 2025-313D
OBJECT_ID      = 2025-313D
CENTER_NAME    = EARTH
REF_FRAME      = TEME
TIME_SYSTEM    = UTC
MEAN_ELEMENT_THEORY = SGP/SGP4

EPOCH          = 2026-01-21T11:17:20.391360
MEAN_MOTION    = 14.88799253
ECCENTRICITY   = .0152342
INCLINATION    = 97.5859
RA_OF_ASC_NODE = 97.9873
ARG_OF_PERICENTER = 94.3659
MEAN_ANOMALY   = 267.4981

EPHEMERIS_TYPE = 0
CLASSIFICATION_TYPE = U
NORAD_CAT_ID   = 67251
ELEMENT_SET_NO = 999
REV_AT_EPOCH   = 356
BSTAR          = .50364E-3
MEAN_MOTION_DOT = .5801E-4
MEAN_MOTION_DDOT = 0

CCSDS_OMM_VERS = 2.0
CREATION_DATE  = 
ORIGINATOR     = 

OBJECT_NAME    = ZORKIY-2M-VPE
OBJECT_ID      = 2025-313E
CENTER_NAME    = EARTH
REF_FRAME      = TEME
TIME_SYSTEM    = UTC
MEAN_ELEMENT_THEORY = SGP/SGP4

EPOCH          = 2026-01-21T11:36:35.269920
MEAN_MOTION    = 15.21799027
ECCENTRICITY   = .0011534
INCLINATION    = 97.4099
RA_OF_ASC_NODE = 98.5844
ARG_OF_PERICENTER = 136.0433
MEAN_ANOMALY   = 224.1722

EPHEMERIS_TYPE = 0
CLASSIFICATION_TYPE = U
NORAD_CAT_ID   = 67252
ELEMENT_SET_NO = 999
REV_AT_EPOCH   = 364
BSTAR          = .53443E-3
MEAN_MOTION_DOT = .12092E-3
MEAN_MOTION_DDOT = 0

CCSDS_OMM_VERS = 2.0
CREATION_DATE  = 
ORIGINATOR     = 

OBJECT_NAME    = AIST-2T 1
OBJECT_ID      = 2025-313F
CENTER_NAME    = EARTH
REF_FRAME      = TEME
TIME_SYSTEM    = UTC
MEAN_ELEMENT_THEORY = SGP/SGP4

EPOCH          = 2026-01-21T11:14:50.187552
MEAN_MOTION    = 15.66001431
ECCENTRICITY   = .0010582
INCLINATION    = 97.1015
RA_OF_ASC_NODE = 98.8529
ARG_OF_PERICENTER = 152.3927
MEAN_ANOMALY   = 207.7898

EPHEMERIS_TYPE = 0
CLASSIFICATION_TYPE = U
NORAD_CAT_ID   = 67253
ELEMENT_SET_NO = 999
REV_AT_EPOCH   = 372
BSTAR          = .66188E-3
MEAN_MOTION_DOT = .68034E-3
MEAN_MOTION_DDOT = 0

CCSDS_OMM_VERS = 2.0
CREATION_DATE  = 
ORIGINATOR     = 

OBJECT_NAME    = AIST-2T 2
OBJECT_ID      = 2025-313G
CENTER_NAME    = EARTH
REF_FRAME      = TEME
TIME_SYSTEM    = UTC
MEAN_ELEMENT_THEORY = SGP/SGP4

EPOCH          = 2026-01-21T05:10:32.991168
MEAN_MOTION    = 15.65084093
ECCENTRICITY   = .00094
INCLINATION    = 97.1015
RA_OF_ASC_NODE = 98.5908
ARG_OF_PERICENTER = 163.2757
MEAN_ANOMALY   = 196.8815

EPHEMERIS_TYPE = 0
CLASSIFICATION_TYPE = U
NORAD_CAT_ID   = 67254
ELEMENT_SET_NO = 999
REV_AT_EPOCH   = 367
BSTAR          = .41367E-3
MEAN_MOTION_DOT = .40798E-3
MEAN_MOTION_DDOT = 0

CCSDS_OMM_VERS = 2.0
CREATION_DATE  = 
ORIGINATOR     = 

OBJECT_NAME    = 2025-313H
OBJECT_ID      = 2025-313H
CENTER_NAME    = EARTH
REF_FRAME      = TEME
TIME_SYSTEM    = UTC
MEAN_ELEMENT_THEORY = SGP/SGP4

EPOCH          = 2026-01-21T10:58:55.296480
MEAN_MOTION    = 15.02216268
ECCENTRICITY   = .0091579
INCLINATION    = 97.3077
RA_OF_ASC_NODE = 97.5720
ARG_OF_PERICENTER = 114.4187
MEAN_ANOMALY   = 246.6628

EPHEMERIS_TYPE = 0
CLASSIFICATION_TYPE = U
NORAD_CAT_ID   = 67255
ELEMENT_SET_NO = 999
REV_AT_EPOCH   = 359
BSTAR          = .33453E-3
MEAN_MOTION_DOT = .4768E-4
MEAN_MOTION_DDOT = 0

